GOES 9                  
1 23581U 95025A   08111.77486162 -.00000166  00000-0  10000-3 0  5480
2 23581   4.2379  75.8290 0005935 271.5974  88.3602  0.98801267 47250
SARSAT 7 (NOAA 15)      
1 25338U 98030A   08112.19020159 -.00000154  00000-0 -47685-4 0  4384
2 25338  98.5524 105.5040 0010092 203.4185 156.6522 14.24695382516683
GOES 11                 
1 26352U 00022A   08112.60649236  .00000091  00000-0  10000-3 0  7835
2 26352   0.3037  87.2286 0000984 239.5846 326.7779  1.00283522 29177
COSPAS 9 (NADEZHDA 6)   
1 26384U 00033A   08113.01280426  .00000071  00000-0  23128-4 0  3065
2 26384  98.4250 128.5944 0016985  89.2824 271.0330 14.64046319417329
SARSAT 8 (NOAA 16)      
1 26536U 00055A   08112.18380685 -.00000182  00000-0 -73362-4 0  9047
2 26536  99.1537 100.1183 0011075  29.7039 330.4781 14.12475170390725
GOES 12                 
1 26871U 01031A   08112.36267969 -.00000246  00000-0  00000+0 0  5290
2 26871   0.1570 259.3849 0003995 166.7002 199.2881  1.00284764 24777
SARSAT 9 (NOAA 17)      
1 27453U 02032A   08112.48826605  .00000233  00000-0  11990-3 0  8988
2 27453  98.5383 178.7464 0010759 273.0099  86.9854 14.23967417302737
INSAT 3A                
1 27714U 03013A   08112.77579449 -.00000253  00000-0  10000-3 0   662
2 27714   0.0663  76.7158 0004040 249.2449 257.0072  1.00271321 18474
SARSAT 10 (NOAA 18)     
1 28654U 05018A   08112.54321417  .00000226  00000-0  14973-3 0  4024
2 28654  98.8650  54.1797 0015090 111.7422 248.5357 14.11155427150482
MSG-2                   
1 28912U 05049B   08105.92942058 -.00000017  00000-0  00000+0 0  3681
2 28912   0.6556 242.0677 0001065 187.5592 108.7573  1.00275980  8554
SARSAT 11 (METOP-A)     
1 29499U 06044A   08112.90534886  .00000083  00000-0  57905-4 0  4785
2 29499  98.7266 172.6248 0001204  64.5554 295.5706 14.21473432 78166
